{
  "type": "FeatureCollection",
  "features": [
    {
      "type": "Feature",
      "properties": {
        "norad_id": 45344,
        "name": "BEIDOU-3 G2 (C60)",
        "group": "gnss",
        "lat": -2.4947050471380505,
        "lon": -52.56332076269168,
        "alt_km": 35767.463321703624,
        "timestamp": "2025-12-14T09:36:23.280590+00:00",
        "meta_object_name": "BEIDOU-3 G2 (C60)",
        "meta_object_id": "2020-017A",
        "meta_epoch": "2025-12-13T17:21:38.913120",
        "meta_mean_motion": 1.0027304,
        "meta_eccentricity": 0.0004436,
        "meta_inclination": 2.4995,
        "meta_ra_of_asc_node": 43.8791,
        "meta_arg_of_pericenter": 268.3523,
        "meta_mean_anomaly": 110.8667,
        "meta_ephemeris_type": 0,
        "meta_classification_type": "U",
        "meta_norad_cat_id": 45344,
        "meta_element_set_no": 999,
        "meta_rev_at_epoch": 2140,
        "meta_bstar": 0,
        "meta_mean_motion_dot": -1.26e-06,
        "meta_mean_motion_ddot": 0,
        "tle_line1": "1 45344U 20017A   25347.72336705 -.00000126  00000+0  00000+0 0  9992",
        "tle_line2": "2 45344   2.4995  43.8791 0004436 268.3523 110.8667  1.00273040 21402"
      },
      "geometry": {
        "type": "Point",
        "coordinates": [
          -52.56332076269168,
          -2.4947050471380505
        ]
      }
    },
    {
      "type": "Feature",
      "properties": {
        "norad_id": 45358,
        "name": "COSMOS 2545 (760)",
        "group": "gnss",
        "lat": 43.05887915045357,
        "lon": -14.579422430670006,
        "alt_km": 19153.352223229005,
        "timestamp": "2025-12-14T09:36:23.280609+00:00",
        "meta_object_name": "COSMOS 2545 (760)",
        "meta_object_id": "2020-018A",
        "meta_epoch": "2025-12-10T13:58:04.872576",
        "meta_mean_motion": 2.13102273,
        "meta_eccentricity": 0.00118432,
        "meta_inclination": 64.471,
        "meta_ra_of_asc_node": 319.0455,
        "meta_arg_of_pericenter": 248.8319,
        "meta_mean_anomaly": 111.0396,
        "meta_ephemeris_type": 0,
        "meta_classification_type": "U",
        "meta_norad_cat_id": 45358,
        "meta_element_set_no": 999,
        "meta_rev_at_epoch": 4464,
        "meta_bstar": 0,
        "meta_mean_motion_dot": -5.2e-07,
        "meta_mean_motion_ddot": 0,
        "tle_line1": "1 45358U 20018A   25344.58200084 -.00000052  00000+0  00000+0 0  9997",
        "tle_line2": "2 45358  64.4710 319.0455 0011843 248.8319 111.0396  2.13102273 44648"
      },
      "geometry": {
        "type": "Point",
        "coordinates": [
          -14.579422430670006,
          43.05887915045357
        ]
      }
    },
    {
      "type": "Feature",
      "properties": {
        "norad_id": 45807,
        "name": "BEIDOU-3 G3 (C61)",
        "group": "gnss",
        "lat": -1.9940912789916867,
        "lon": -22.06448085307098,
        "alt_km": 35765.33045576072,
        "timestamp": "2025-12-14T09:36:23.280626+00:00",
        "meta_object_name": "BEIDOU-3 G3 (C61)",
        "meta_object_id": "2020-040A",
        "meta_epoch": "2025-12-08T17:33:17.532288",
        "meta_mean_motion": 1.00275813,
        "meta_eccentricity": 0.00060306,
        "meta_inclination": 1.9816,
        "meta_ra_of_asc_node": 66.5886,
        "meta_arg_of_pericenter": 306.262,
        "meta_mean_anomaly": 78.7159,
        "meta_ephemeris_type": 0,
        "meta_classification_type": "U",
        "meta_norad_cat_id": 45807,
        "meta_element_set_no": 999,
        "meta_rev_at_epoch": 2016,
        "meta_bstar": 0,
        "meta_mean_motion_dot": -3.52e-06,
        "meta_mean_motion_ddot": 0,
        "tle_line1": "1 45807U 20040A   25342.73145292 -.00000352  00000+0  00000+0 0  9998",
        "tle_line2": "2 45807   1.9816  66.5886 0006030 306.2620  78.7159  1.00275813 20161"
      },
      "geometry": {
        "type": "Point",
        "coordinates": [
          -22.06448085307098,
          -1.9940912789916867
        ]
      }
    },
    {
      "type": "Feature",
      "properties": {
        "norad_id": 45854,
        "name": "GPS BIII-3  (PRN 23)",
        "group": "gnss",
        "lat": 54.47870184782899,
        "lon": 148.41853310877372,
        "alt_km": 20205.27377452952,
        "timestamp": "2025-12-14T09:36:23.280645+00:00",
        "meta_object_name": "GPS BIII-3  (PRN 23)",
        "meta_object_id": "2020-041A",
        "meta_epoch": "2025-12-11T05:23:02.925024",
        "meta_mean_motion": 2.00561914,
        "meta_eccentricity": 0.006046,
        "meta_inclination": 56.5461,
        "meta_ra_of_asc_node": 36.2442,
        "meta_arg_of_pericenter": 203.3747,
        "meta_mean_anomaly": 126.9066,
        "meta_ephemeris_type": 0,
        "meta_classification_type": "U",
        "meta_norad_cat_id": 45854,
        "meta_element_set_no": 999,
        "meta_rev_at_epoch": 4026,
        "meta_bstar": 0,
        "meta_mean_motion_dot": -9.4e-07,
        "meta_mean_motion_ddot": 0,
        "tle_line1": "1 45854U 20041A   25345.22433941 -.00000094  00000+0  00000+0 0  9992",
        "tle_line2": "2 45854  56.5461  36.2442 0060460 203.3747 126.9066  2.00561914 40268"
      },
      "geometry": {
        "type": "Point",
        "coordinates": [
          148.41853310877372,
          54.47870184782899
        ]
      }
    },
    {
      "type": "Feature",
      "properties": {
        "norad_id": 46114,
        "name": "GALAXY 30 (WAAS/PRN 135)",
        "group": "gnss",
        "lat": 0.031891022267815455,
        "lon": 102.411172419126,
        "alt_km": 35794.32689101734,
        "timestamp": "2025-12-14T09:36:23.280663+00:00",
        "meta_object_name": "GALAXY 30 (WAAS/PRN 135)",
        "meta_object_id": "2020-056C",
        "meta_epoch": "2025-12-13T14:33:59.343840",
        "meta_mean_motion": 1.00273252,
        "meta_eccentricity": 0.00021731,
        "meta_inclination": 0.0181,
        "meta_ra_of_asc_node": 341.6276,
        "meta_arg_of_pericenter": 282.0947,
        "meta_mean_anomaly": 272.32,
        "meta_ephemeris_type": 0,
        "meta_classification_type": "U",
        "meta_norad_cat_id": 46114,
        "meta_element_set_no": 999,
        "meta_rev_at_epoch": 1943,
        "meta_bstar": 0,
        "meta_mean_motion_dot": 5.2e-07,
        "meta_mean_motion_ddot": 0,
        "tle_line1": "1 46114U 20056C   25347.60693685  .00000052  00000+0  00000+0 0  9998",
        "tle_line2": "2 46114   0.0181 341.6276 0002173 282.0947 272.3200  1.00273252 19437"
      },
      "geometry": {
        "type": "Point",
        "coordinates": [
          102.411172419126,
          0.031891022267815455
        ]
      }
    },
    {
      "type": "Feature",
      "properties": {
        "norad_id": 46805,
        "name": "COSMOS 2547 (705K)",
        "group": "gnss",
        "lat": -64.12043272300802,
        "lon": 97.03263926933317,
        "alt_km": 19123.68210298909,
        "timestamp": "2025-12-14T09:36:23.280681+00:00",
        "meta_object_name": "COSMOS 2547 (705K)",
        "meta_object_id": "2020-075A",
        "meta_epoch": "2025-12-13T02:47:35.788416",
        "meta_mean_motion": 2.13100044,
        "meta_eccentricity": 0.00062786,
        "meta_inclination": 64.5959,
        "meta_ra_of_asc_node": 198.6839,
        "meta_arg_of_pericenter": 228.7725,
        "meta_mean_anomaly": 131.2461,
        "meta_ephemeris_type": 0,
        "meta_classification_type": "U",
        "meta_norad_cat_id": 46805,
        "meta_element_set_no": 999,
        "meta_rev_at_epoch": 3994,
        "meta_bstar": 0,
        "meta_mean_motion_dot": 7.7e-07,
        "meta_mean_motion_ddot": 0,
        "tle_line1": "1 46805U 20075A   25347.11638644  .00000077  00000+0  00000+0 0  9993",
        "tle_line2": "2 46805  64.5959 198.6839 0006278 228.7725 131.2461  2.13100044 39941"
      },
      "geometry": {
        "type": "Point",
        "coordinates": [
          97.03263926933317,
          -64.12043272300802
        ]
      }
    },
    {
      "type": "Feature",
      "properties": {
        "norad_id": 46826,
        "name": "GPS BIII-4  (PRN 14)",
        "group": "gnss",
        "lat": 50.99695662201752,
        "lon": -78.00444956968428,
        "alt_km": 20284.959526846986,
        "timestamp": "2025-12-14T09:36:23.280698+00:00",
        "meta_object_name": "GPS BIII-4  (PRN 14)",
        "meta_object_id": "2020-078A",
        "meta_epoch": "2025-12-13T00:53:29.004000",
        "meta_mean_motion": 2.00566814,
        "meta_eccentricity": 0.00646719,
        "meta_inclination": 54.015,
        "meta_ra_of_asc_node": 218.3288,
        "meta_arg_of_pericenter": 203.3817,
        "meta_mean_anomaly": 326.8,
        "meta_ephemeris_type": 0,
        "meta_classification_type": "U",
        "meta_norad_cat_id": 46826,
        "meta_element_set_no": 999,
        "meta_rev_at_epoch": 3777,
        "meta_bstar": 0,
        "meta_mean_motion_dot": 2.7e-07,
        "meta_mean_motion_ddot": 0,
        "tle_line1": "1 46826U 20078A   25347.03714125  .00000027  00000+0  00000+0 0  9994",
        "tle_line2": "2 46826  54.0150 218.3288 0064671 203.3817 326.8000  2.00566814 37778"
      },
      "geometry": {
        "type": "Point",
        "coordinates": [
          -78.00444956968428,
          50.99695662201752
        ]
      }
    }
  ]
}